{"type": "FeatureCollection", "features": [{"type": "Feature", "properties": {"norad_id": 28054, "name": "DMSP 5D-3 F16 (USA 172)", "group": "weather", "lat": -5.532310378350233, "lon": 3.0274154875719064, "alt_km": 843.6414861653475, "timestamp": "2025-12-10T16:57:11.277257+00:00", "meta": {"OBJECT_NAME": "DMSP 5D-3 F16 (USA 172)", "OBJECT_ID": "2003-048A", "EPOCH": "2025-12-10T12:36:01.505952", "MEAN_MOTION": 14.14423074, "ECCENTRICITY": 0.0006574, "INCLINATION": 99.0048, "RA_OF_ASC_NODE": 1.9646, "ARG_OF_PERICENTER": 327.814, "MEAN_ANOMALY": 183.6939, "EPHEMERIS_TYPE": 0, "CLASSIFICATION_TYPE": "U", "NORAD_CAT_ID": 28054, "ELEMENT_SET_NO": 999, "REV_AT_EPOCH": 14281, "BSTAR": 0.00013786, "MEAN_MOTION_DOT": 2.18e-06, "MEAN_MOTION_DDOT": 0}, "tle": {"line1": "1 28054U 03048A   25344.52501743  .00000218  00000+0  13786-3 0  9997", "line2": "2 28054  99.0048   1.9646 0006574 327.8140 183.6939 14.14423074142819"}}, "geometry": {"type": "Point", "coordinates": [3.0274154875719064, -5.532310378350233]}}, {"type": "Feature", "properties": {"norad_id": 28912, "name": "METEOSAT-9 (MSG-2)", "group": "weather", "lat": -5.2759321535154315, "lon": 19.988528660651074, "alt_km": 35796.8065439355, "timestamp": "2025-12-10T16:57:11.277306+00:00", "meta": {"OBJECT_NAME": "METEOSAT-9 (MSG-2)", "OBJECT_ID": "2005-049B", "EPOCH": "2025-12-09T20:38:15.300384", "MEAN_MOTION": 1.00274858, "ECCENTRICITY": 0.0003774, "INCLINATION": 8.9334, "RA_OF_ASC_NODE": 56.0037, "ARG_OF_PERICENTER": 190.0856, "MEAN_ANOMALY": 187.9557, "EPHEMERIS_TYPE": 0, "CLASSIFICATION_TYPE": "U", "NORAD_CAT_ID": 28912, "ELEMENT_SET_NO": 999, "REV_AT_EPOCH": 510, "BSTAR": 0, "MEAN_MOTION_DOT": 1.24e-06, "MEAN_MOTION_DDOT": 0}, "tle": {"line1": "1 28912U 05049B   25343.85989931  .00000124  00000+0  00000+0 0  9994", "line2": "2 28912   8.9334  56.0037 0003774 190.0856 187.9557  1.00274858  5105"}}, "geometry": {"type": "Point", "coordinates": [19.988528660651074, -5.2759321535154315]}}, {"type": "Feature", "properties": {"norad_id": 29522, "name": "DMSP 5D-3 F17 (USA 191)", "group": "weather", "lat": -67.0232316004402, "lon": 11.40960494087484, "alt_km": 846.4503351889953, "timestamp": "2025-12-10T16:57:11.277324+00:00", "meta": {"OBJECT_NAME": "DMSP 5D-3 F17 (USA 191)", "OBJECT_ID": "2006-050A", "EPOCH": "2025-12-10T12:11:08.687616", "MEAN_MOTION": 14.14918041, "ECCENTRICITY": 0.0009313, "INCLINATION": 98.7394, "RA_OF_ASC_NODE": 349.9433, "ARG_OF_PERICENTER": 231.836, "MEAN_ANOMALY": 128.1975, "EPHEMERIS_TYPE": 0, "CLASSIFICATION_TYPE": "U", "NORAD_CAT_ID": 29522, "ELEMENT_SET_NO": 999, "REV_AT_EPOCH": 98573, "BSTAR": 0.00016566, "MEAN_MOTION_DOT": 2.77e-06, "MEAN_MOTION_DDOT": 0}, "tle": {"line1": "1 29522U 06050A   25344.50773944  .00000277  00000+0  16566-3 0  9990", "line2": "2 29522  98.7394 349.9433 0009313 231.8360 128.1975 14.14918041985734"}}, "geometry": {"type": "Point", "coordinates": [11.40960494087484, -67.0232316004402]}}, {"type": "Feature", "properties": {"norad_id": 32958, "name": "FENGYUN 3A", "group": "weather", "lat": -28.012644694766404, "lon": -71.06826429259121, "alt_km": 827.1825708680017, "timestamp": "2025-12-10T16:57:11.277337+00:00", "meta": {"OBJECT_NAME": "FENGYUN 3A", "OBJECT_ID": "2008-026A", "EPOCH": "2025-12-10T10:19:10.536384", "MEAN_MOTION": 14.19513394, "ECCENTRICITY": 0.0007998, "INCLINATION": 98.6695, "RA_OF_ASC_NODE": 284.0055, "ARG_OF_PERICENTER": 317.7202, "MEAN_ANOMALY": 42.3357, "EPHEMERIS_TYPE": 0, "CLASSIFICATION_TYPE": "U", "NORAD_CAT_ID": 32958, "ELEMENT_SET_NO": 999, "REV_AT_EPOCH": 90862, "BSTAR": 0.00011972, "MEAN_MOTION_DOT": 2.09e-06, "MEAN_MOTION_DDOT": 0}, "tle": {"line1": "1 32958U 08026A   25344.42998306  .00000209  00000+0  11972-3 0  9995", "line2": "2 32958  98.6695 284.0055 0007998 317.7202  42.3357 14.19513394908620"}}, "geometry": {"type": "Point", "coordinates": [-71.06826429259121, -28.012644694766404]}}, {"type": "Feature", "properties": {"norad_id": 35491, "name": "GOES 14", "group": "weather", "lat": 0.7468009495189806, "lon": -134.32429911378054, "alt_km": 35769.30539708528, "timestamp": "2025-12-10T16:57:11.277365+00:00", "meta": {"OBJECT_NAME": "GOES 14", "OBJECT_ID": "2009-033A", "EPOCH": "2025-12-10T10:21:18.620928", "MEAN_MOTION": 1.0027336, "ECCENTRICITY": 0.0003975, "INCLINATION": 1.1938, "RA_OF_ASC_NODE": 85.4365, "ARG_OF_PERICENTER": 155.1385, "MEAN_ANOMALY": 245.8661, "EPHEMERIS_TYPE": 0, "CLASSIFICATION_TYPE": "U", "NORAD_CAT_ID": 35491, "ELEMENT_SET_NO": 999, "REV_AT_EPOCH": 470, "BSTAR": 0, "MEAN_MOTION_DOT": -6.4e-07, "MEAN_MOTION_DDOT": 0}, "tle": {"line1": "1 35491U 09033A   25344.43146552 -.00000064  00000+0  00000+0 0  9994", "line2": "2 35491   1.1938  85.4365 0003975 155.1385 245.8661  1.00273360  4704"}}, "geometry": {"type": "Point", "coordinates": [-134.32429911378054, 0.7468009495189806]}}, {"type": "Feature", "properties": {"norad_id": 35951, "name": "DMSP 5D-3 F18 (USA 210)", "group": "weather", "lat": 19.74545347669568, "lon": 144.3355231921464, "alt_km": 843.4071551099778, "timestamp": "2025-12-10T16:57:11.277380+00:00", "meta": {"OBJECT_NAME": "DMSP 5D-3 F18 (USA 210)", "OBJECT_ID": "2009-057A", "EPOCH": "2025-12-10T11:06:32.537376", "MEAN_MOTION": 14.14767139, "ECCENTRICITY": 0.0012087, "INCLINATION": 98.8833, "RA_OF_ASC_NODE": 320.8751, "ARG_OF_PERICENTER": 68.7045, "MEAN_ANOMALY": 291.5418, "EPHEMERIS_TYPE": 0, "CLASSIFICATION_TYPE": "U", "NORAD_CAT_ID": 35951, "ELEMENT_SET_NO": 999, "REV_AT_EPOCH": 83290, "BSTAR": 0.00024142, "MEAN_MOTION_DOT": 4.21e-06, "MEAN_MOTION_DDOT": 0}, "tle": {"line1": "1 35951U 09057A   25344.46287659  .00000421  00000+0  24142-3 0  9991", "line2": "2 35951  98.8833 320.8751 0012087  68.7045 291.5418 14.14767139832903"}}, "geometry": {"type": "Point", "coordinates": [144.3355231921464, 19.74545347669568]}}, {"type": "Feature", "properties": {"norad_id": 36411, "name": "EWS-G2 (GOES 15)", "group": "weather", "lat": -0.6095838052326232, "lon": 35.44745842036515, "alt_km": 35804.71630411978, "timestamp": "2025-12-10T16:57:11.277396+00:00", "meta": {"OBJECT_NAME": "EWS-G2 (GOES 15)", "OBJECT_ID": "2010-008A", "EPOCH": "2025-12-10T01:58:51.583008", "MEAN_MOTION": 1.00269219, "ECCENTRICITY": 0.00058926, "INCLINATION": 0.8075, "RA_OF_ASC_NODE": 86.0538, "ARG_OF_PERICENTER": 173.5819, "MEAN_ANOMALY": 270.5727, "EPHEMERIS_TYPE": 0, "CLASSIFICATION_TYPE": "U", "NORAD_CAT_ID": 36411, "ELEMENT_SET_NO": 999, "REV_AT_EPOCH": 5774, "BSTAR": 0, "MEAN_MOTION_DOT": 4.1e-07, "MEAN_MOTION_DDOT": 0}, "tle": {"line1": "1 36411U 10008A   25344.08254147  .00000041  00000+0  00000+0 0  9996", "line2": "2 36411   0.8075  86.0538 0005892 173.5819 270.5727  1.00269219 57748"}}, "geometry": {"type": "Point", "coordinates": [35.44745842036515, -0.6095838052326232]}}, {"type": "Feature", "properties": {"norad_id": 36744, "name": "COMS 1", "group": "weather", "lat": 1.7890438113781912, "lon": 102.08638835734747, "alt_km": 35790.87114565999, "timestamp": "2025-12-10T16:57:11.277410+00:00", "meta": {"OBJECT_NAME": "COMS 1", "OBJECT_ID": "2010-032A", "EPOCH": "2025-12-10T10:13:51.537216", "MEAN_MOTION": 1.00270682, "ECCENTRICITY": 0.0001104, "INCLINATION": 4.336, "RA_OF_ASC_NODE": 78.0218, "ARG_OF_PERICENTER": 206.2319, "MEAN_ANOMALY": 76.7867, "EPHEMERIS_TYPE": 0, "CLASSIFICATION_TYPE": "U", "NORAD_CAT_ID": 36744, "ELEMENT_SET_NO": 999, "REV_AT_EPOCH": 4919, "BSTAR": 0, "MEAN_MOTION_DOT": -3.41e-06, "MEAN_MOTION_DDOT": 0}, "tle": {"line1": "1 36744U 10032A   25344.42629094 -.00000341  00000+0  00000+0 0  9991", "line2": "2 36744   4.3360  78.0218 0001104 206.2319  76.7867  1.00270682 49197"}}, "geometry": {"type": "Point", "coordinates": [102.08638835734747, 1.7890438113781912]}}, {"type": "Feature", "properties": {"norad_id": 37214, "name": "FENGYUN 3B", "group": "weather", "lat": 54.561282868888455, "lon": -142.47803309518832, "alt_km": 845.9953866533451, "timestamp": "2025-12-10T16:57:11.277421+00:00", "meta": {"OBJECT_NAME": "FENGYUN 3B", "OBJECT_ID": "2010-059A", "EPOCH": "2025-12-10T13:42:30.252672", "MEAN_MOTION": 14.14789255, "ECCENTRICITY": 0.0022182, "INCLINATION": 98.9904, "RA_OF_ASC_NODE": 24.5329, "ARG_OF_PERICENTER": 3.9155, "MEAN_ANOMALY": 152.0204, "EPHEMERIS_TYPE": 0, "CLASSIFICATION_TYPE": "U", "NORAD_CAT_ID": 37214, "ELEMENT_SET_NO": 999, "REV_AT_EPOCH": 78075, "BSTAR": 0.00024147, "MEAN_MOTION_DOT": 4.21e-06, "MEAN_MOTION_DDOT": 0}, "tle": {"line1": "1 37214U 10059A   25344.57118348  .00000421  00000+0  24147-3 0  9994", "line2": "2 37214  98.9904  24.5329 0022182   3.9155 152.0204 14.14789255780758"}}, "geometry": {"type": "Point", "coordinates": [-142.47803309518832, 54.561282868888455]}}, {"type": "Feature", "properties": {"norad_id": 37849, "name": "SUOMI NPP", "group": "weather", "lat": -67.86514646530347, "lon": -55.61136817390479, "alt_km": 835.7493040130994, "timestamp": "2025-12-10T16:57:11.277433+00:00", "meta": {"OBJECT_NAME": "SUOMI NPP", "OBJECT_ID": "2011-061A", "EPOCH": "2025-12-10T10:30:50.308128", "MEAN_MOTION": 14.1951317, "ECCENTRICITY": 0.000217, "INCLINATION": 98.7771, "RA_OF_ASC_NODE": 281.8004, "ARG_OF_PERICENTER": 124.2216, "MEAN_ANOMALY": 235.9166, "EPHEMERIS_TYPE": 0, "CLASSIFICATION_TYPE": "U", "NORAD_CAT_ID": 37849, "ELEMENT_SET_NO": 999, "REV_AT_EPOCH": 73166, "BSTAR": 0.00011323, "MEAN_MOTION_DOT": 1.94e-06, "MEAN_MOTION_DDOT": 0}, "tle": {"line1": "1 37849U 11061A   25344.43808227  .00000194  00000+0  11323-3 0  9998", "line2": "2 37849  98.7771 281.8004 0002170 124.2216 235.9166 14.19513170731660"}}, "geometry": {"type": "Point", "coordinates": [-55.61136817390479, -67.86514646530347]}}]}